{
  "norad_id": 43180,
  "name": "KANOPUS-V 3",
  "history": [
    {
      "epoch": "2026-03-27T22:11:57.494400",
      "apogee_km": 499.1766254518634,
      "perigee_km": 497.0999903088841,
      "latitude_deg": -10.003028294558499,
      "longitude_deg": -69.2027839999646,
      "semi_major_axis_km": 6876.2753078803735,
      "eccentricity": 0.000151,
      "inclination_deg": 97.3634,
      "raan_deg": 354.0908,
      "arg_perigee_deg": 96.4806,
      "mean_anomaly_deg": 263.6603,
      "mean_motion_rev_day": 15.22554606
    }
  ]
}